PROBA-1                 
1 26958U 01049B   26201.25694542  .00000457  00000+0  33643-4 0  9990
2 26958  97.9603 210.9475 0055180  12.7843 347.4769 15.07622811348602
CUTE-1 (CO-55)          
1 27844U 03031E   26201.26425805  .00000144  00000+0  81134-4 0  9994
2 27844  98.6745 209.4081 0010867  89.7034 270.5390 14.24353468196386
CUBESAT XI-IV (CO-57)   
1 27848U 03031J   26200.98821655  .00000102  00000+0  63799-4 0  9990
2 27848  98.6776 208.8216 0010677 106.9175 253.3176 14.23636063196042
APRIZESAT 4             
1 35684U 09041D   26201.16334194  .00000339  00000+0  47162-4 0  9990
2 35684  98.1399 277.1396 0042538 213.0561 146.7993 14.83917858916258
APRIZESAT 3             
1 35686U 09041F   26201.26787205  .00000130  00000+0  17104-4 0  9990
2 35686  98.2107 356.0859 0060687 318.9183  40.7475 14.96316648921325
PROBA-2                 
1 36037U 09059B   26201.25262697  .00000079  00000+0  29027-4 0  9991
2 36037  98.2463  24.1491 0013377 173.0862 187.0522 14.54874830886339
APRIZESAT 5             
1 37792U 11044E   26200.77267601  .00000332  00000+0  49423-4 0  9997
2 37792  98.2447 134.7386 0050699 257.5539 101.9996 14.81131505803613
APRIZESAT 6             
1 37793U 11044F   26201.22517269  .00000359  00000+0  58216-4 0  9996
2 37793  98.2331 112.3960 0042646 342.1175 170.5029 14.76961094802027
PROBA-V                 
1 39159U 13021A   26200.94203759  .00000022  00000+0  27512-4 0  9997
2 39159  98.3609 177.9355 0005068  48.9154 311.2463 14.23603886685775
APRIZESAT 7             
1 39416U 13066A   26201.29339354  .00000752  00000+0  79577-4 0  9990
2 39416  97.7724 154.0416 0037327 101.0811 259.4609 14.91626226686167
APRIZESAT 8             
1 39425U 13066K   26201.30077650  .00000409  00000+0  50268-4 0  9995
2 39425  97.8231 148.3104 0045941 175.0264 185.1418 14.87700936684599
BUGSAT-1 (TITA)         
1 40014U 14033E   26201.24166209  .00003218  00000+0  17024-3 0  9991
2 40014  98.0427 295.7320 0028984  69.6895 290.7447 15.15911812660844
SAUDISAT 4              
1 40016U 14033G   26200.98631324  .00000222  00000+0  36097-4 0  9992
2 40016  97.7625 345.9947 0043889 328.2655  31.5913 14.79578222650924
APRIZESAT 9             
1 40018U 14033J   26200.92247852  .00000299  00000+0  51210-4 0  9995
2 40018  97.9101 333.3279 0067499  95.0733 265.8185 14.74256009648386
APRIZESAT 10            
1 40019U 14033K   26201.18780733  .00000349  00000+0  62578-4 0  9990
2 40019  97.9687 327.4180 0079125 167.4435 192.8768 14.70914572647100
TECHDEMOSAT-1 (TDS-1)   
1 40076U 14037H   26200.94999109  .00004083  00000+0  23096-3 0  9999
2 40076  98.3835 196.4244 0007290 144.6999 215.4714 15.13716498653187
TECHNOSAT               
1 42829U 17042E   26201.22567404  .00001319  00000+0  96541-4 0  9992
2 42829  97.4324 357.6365 0016946 346.8749  13.2035 15.05126578491679
FLYING LAPTOP           
1 42831U 17042G   26201.31208700  .00001686  00000+0  13499-3 0  9993
2 42831  97.4838 355.6037 0019405  16.2651 343.9193 15.01331962491421
HAWK-A                  
1 43765U 18099H   26201.09407375  .00003914  00000+0  15705-3 0  9995
2 43765  97.3891 252.9053 0035273 166.8572 193.3593 15.25001549418115
HAWK-B                  
1 43794U 18099AN  26201.08949461  .00003298  00000+0  14077-3 0  9999
2 43794  97.3942 252.2461 0031869 184.7615 175.3324 15.23147151418046
HAWK-C                  
1 43799U 18099AT  26201.12631557  .00004771  00000+0  17040-3 0  9993
2 43799  97.3867 254.0132 0040808 166.5097 193.7244 15.28537062418940
SALSAT                  
1 46495U 20068K   26200.97640307  .00004107  00000+0  14329-3 0  9993
2 46495  97.8865 206.0496 0009725 176.0322 184.0997 15.30211220320374
HAWK-2C                 
1 47502U 21006CT  26201.07575980  .00003542  00000+0  10646-3 0  9992
2 47502  97.2260 244.7343 0008660  87.1093 273.1142 15.35024151304544
HAWK-2A                 
1 47505U 21006CW  26201.07791645  .00003564  00000+0  10705-3 0  9993
2 47505  97.2301 245.4333 0008218  90.5861 269.6324 15.35045063304547
HAWK-2B                 
1 47508U 21006CZ  26201.07103143  .00004138  00000+0  12336-3 0  9996
2 47508  97.2173 243.7068 0008745  88.8475 271.3771 15.35176516304543
HAWK-3B                 
1 48931U 21059BE  26201.12896549  .00028153  00000+0  21492-3 0  9996
2 48931  97.6637  41.0194 0004855 181.2561 178.8690 15.72164957283021
HAWK-3C                 
1 48948U 21059BX  26201.12864859  .00028441  00000+0  21708-3 0  9993
2 48948  97.6753  46.7605 0005150 181.4395 178.6854 15.72164981283020
HAWK-3A                 
1 48957U 21059CG  26201.12853685  .00027537  00000+0  21025-3 0  9995
2 48957  97.6701  43.9389 0005049 183.4307 176.6922 15.72164641283020
HAWK-5C                 
1 52754U 22057Y   26201.18531450  .00011103  00000+0  18341-3 0  9992
2 52754  97.6629   3.0139 0002402 321.6813  38.4268 15.52433953231469
HAWK-5B                 
1 52756U 22057AA  26201.24959933  .00011039  00000+0  18237-3 0  9993
2 52756  97.6641   1.4370 0003072 307.4820  52.6152 15.52431444231472
